{
  "type": "FeatureCollection",
  "features": [
    {
      "type": "Feature",
      "properties": {
        "norad_id": 39766,
        "name": "ALOS-2",
        "group": "resource",
        "lat": -74.55349233369053,
        "lon": 107.90686705452336,
        "alt_km": 639.3499226278673,
        "timestamp": "2025-12-08T17:43:04.551035+00:00",
        "meta_object_name": "ALOS-2",
        "meta_object_id": "2014-029A",
        "meta_epoch": "2025-12-08T06:42:06.784416",
        "meta_mean_motion": 14.7946434,
        "meta_eccentricity": 0.00014613,
        "meta_inclination": 97.9231,
        "meta_ra_of_asc_node": 77.1892,
        "meta_arg_of_pericenter": 104.0021,
        "meta_mean_anomaly": 256.1354,
        "meta_ephemeris_type": 0,
        "meta_classification_type": "U",
        "meta_norad_cat_id": 39766,
        "meta_element_set_no": 999,
        "meta_rev_at_epoch": 62335,
        "meta_bstar": 0.0004711097,
        "meta_mean_motion_dot": 3.468e-05,
        "meta_mean_motion_ddot": 0,
        "tle_line1": "1 39766U 14029A   25342.27924519  .00003468  00000+0  47111-3 0  9999",
        "tle_line2": "2 39766  97.9231  77.1892 0001461 104.0021 256.1354 14.79464340623355"
      },
      "geometry": {
        "type": "Point",
        "coordinates": [
          107.90686705452336,
          -74.55349233369053
        ]
      }
    },
    {
      "type": "Feature",
      "properties": {
        "norad_id": 40010,
        "name": "KAZEOSAT 2",
        "group": "resource",
        "lat": 67.20727085396909,
        "lon": 25.661557182184,
        "alt_km": 608.327173707411,
        "timestamp": "2025-12-08T17:43:04.551046+00:00",
        "meta_object_name": "KAZEOSAT 2",
        "meta_object_id": "2014-033A",
        "meta_epoch": "2025-12-08T05:53:52.808640",
        "meta_mean_motion": 14.85157346,
        "meta_eccentricity": 0.00074725,
        "meta_inclination": 97.5514,
        "meta_ra_of_asc_node": 186.7924,
        "meta_arg_of_pericenter": 223.0044,
        "meta_mean_anomaly": 137.0588,
        "meta_ephemeris_type": 0,
        "meta_classification_type": "U",
        "meta_norad_cat_id": 40010,
        "meta_element_set_no": 999,
        "meta_rev_at_epoch": 62061,
        "meta_bstar": 0.0001743159,
        "meta_mean_motion_dot": 1.443e-05,
        "meta_mean_motion_ddot": 0,
        "tle_line1": "1 40010U 14033A   25342.24575010  .00001443  00000+0  17432-3 0  9997",
        "tle_line2": "2 40010  97.5514 186.7924 0007472 223.0044 137.0588 14.85157346620611"
      },
      "geometry": {
        "type": "Point",
        "coordinates": [
          25.661557182184,
          67.20727085396909
        ]
      }
    },
    {
      "type": "Feature",
      "properties": {
        "norad_id": 40011,
        "name": "HODOYOSHI-4",
        "group": "resource",
        "lat": 13.771957419357989,
        "lon": -6.3196659939929125,
        "alt_km": 596.2936275192005,
        "timestamp": "2025-12-08T17:43:04.551057+00:00",
        "meta_object_name": "HODOYOSHI-4",
        "meta_object_id": "2014-033B",
        "meta_epoch": "2025-12-08T05:40:15.852576",
        "meta_mean_motion": 14.87456943,
        "meta_eccentricity": 0.00228918,
        "meta_inclination": 97.5416,
        "meta_ra_of_asc_node": 171.3425,
        "meta_arg_of_pericenter": 215.9174,
        "meta_mean_anomaly": 144.0505,
        "meta_ephemeris_type": 0,
        "meta_classification_type": "U",
        "meta_norad_cat_id": 40011,
        "meta_element_set_no": 999,
        "meta_rev_at_epoch": 62041,
        "meta_bstar": 0.00032015229,
        "meta_mean_motion_dot": 2.861e-05,
        "meta_mean_motion_ddot": 0,
        "tle_line1": "1 40011U 14033B   25342.23629459  .00002861  00000+0  32015-3 0  9993",
        "tle_line2": "2 40011  97.5416 171.3425 0022891 215.9174 144.0505 14.87456943620417"
      },
      "geometry": {
        "type": "Point",
        "coordinates": [
          -6.3196659939929125,
          13.771957419357989
        ]
      }
    },
    {
      "type": "Feature",
      "properties": {
        "norad_id": 40013,
        "name": "DEIMOS-2",
        "group": "resource",
        "lat": -63.45351346469466,
        "lon": 23.154434420939133,
        "alt_km": 596.5619428060354,
        "timestamp": "2025-12-08T17:43:04.551067+00:00",
        "meta_object_name": "DEIMOS-2",
        "meta_object_id": "2014-033D",
        "meta_epoch": "2025-12-08T05:21:59.264640",
        "meta_mean_motion": 14.92944737,
        "meta_eccentricity": 9.812e-05,
        "meta_inclination": 97.607,
        "meta_ra_of_asc_node": 218.1727,
        "meta_arg_of_pericenter": 95.2974,
        "meta_mean_anomaly": 264.8358,
        "meta_ephemeris_type": 0,
        "meta_classification_type": "U",
        "meta_norad_cat_id": 40013,
        "meta_element_set_no": 999,
        "meta_rev_at_epoch": 60922,
        "meta_bstar": 0.00037925808,
        "meta_mean_motion_dot": 3.883e-05,
        "meta_mean_motion_ddot": 0,
        "tle_line1": "1 40013U 14033D   25342.22360260  .00003883  00000+0  37926-3 0  9997",
        "tle_line2": "2 40013  97.6070 218.1727 0000981  95.2974 264.8358 14.92944737609226"
      },
      "geometry": {
        "type": "Point",
        "coordinates": [
          23.154434420939133,
          -63.45351346469466
        ]
      }
    },
    {
      "type": "Feature",
      "properties": {
        "norad_id": 40015,
        "name": "HODOYOSHI-3",
        "group": "resource",
        "lat": 49.58653910977872,
        "lon": -22.207127165416548,
        "alt_km": 624.6211271104557,
        "timestamp": "2025-12-08T17:43:04.551077+00:00",
        "meta_object_name": "HODOYOSHI-3",
        "meta_object_id": "2014-033F",
        "meta_epoch": "2025-12-08T00:57:31.692960",
        "meta_mean_motion": 14.8478109,
        "meta_eccentricity": 0.00318137,
        "meta_inclination": 97.6198,
        "meta_ra_of_asc_node": 148.0795,
        "meta_arg_of_pericenter": 264.012,
        "meta_mean_anomaly": 95.747,
        "meta_ephemeris_type": 0,
        "meta_classification_type": "U",
        "meta_norad_cat_id": 40015,
        "meta_element_set_no": 999,
        "meta_rev_at_epoch": 61925,
        "meta_bstar": 0.0002930471,
        "meta_mean_motion_dot": 2.456e-05,
        "meta_mean_motion_ddot": 0,
        "tle_line1": "1 40015U 14033F   25342.03995015  .00002456  00000+0  29305-3 0  9997",
        "tle_line2": "2 40015  97.6198 148.0795 0031813 264.0120  95.7470 14.84781090619254"
      },
      "geometry": {
        "type": "Point",
        "coordinates": [
          -22.207127165416548,
          49.58653910977872
        ]
      }
    },
    {
      "type": "Feature",
      "properties": {
        "norad_id": 40053,
        "name": "SPOT 7",
        "group": "resource",
        "lat": -18.72062914621789,
        "lon": -137.85731619904627,
        "alt_km": 696.1976910797421,
        "timestamp": "2025-12-08T17:43:04.551089+00:00",
        "meta_object_name": "SPOT 7",
        "meta_object_id": "2014-034A",
        "meta_epoch": "2025-12-08T06:56:48.508512",
        "meta_mean_motion": 14.60725837,
        "meta_eccentricity": 0.00015312,
        "meta_inclination": 98.0913,
        "meta_ra_of_asc_node": 44.4675,
        "meta_arg_of_pericenter": 94.1496,
        "meta_mean_anomaly": 265.988,
        "meta_ephemeris_type": 0,
        "meta_classification_type": "U",
        "meta_norad_cat_id": 40053,
        "meta_element_set_no": 999,
        "meta_rev_at_epoch": 60926,
        "meta_bstar": 0.00024569324,
        "meta_mean_motion_dot": 1.152e-05,
        "meta_mean_motion_ddot": 0,
        "tle_line1": "1 40053U 14034A   25342.28945033  .00001152  00000+0  24569-3 0  9991",
        "tle_line2": "2 40053  98.0913  44.4675 0001531  94.1496 265.9880 14.60725837609261"
      },
      "geometry": {
        "type": "Point",
        "coordinates": [
          -137.85731619904627,
          -18.72062914621789
        ]
      }
    },
    {
      "type": "Feature",
      "properties": {
        "norad_id": 40072,
        "name": "SKYSAT-B",
        "group": "resource",
        "lat": 67.26262757213453,
        "lon": 126.77674282590465,
        "alt_km": 597.246845316251,
        "timestamp": "2025-12-08T17:43:04.551099+00:00",
        "meta_object_name": "SKYSAT-B",
        "meta_object_id": "2014-037D",
        "meta_epoch": "2025-12-08T07:31:54.710688",
        "meta_mean_motion": 14.87301914,
        "meta_eccentricity": 0.00057909,
        "meta_inclination": 98.3606,
        "meta_ra_of_asc_node": 285.7861,
        "meta_arg_of_pericenter": 163.4218,
        "meta_mean_anomaly": 196.7187,
        "meta_ephemeris_type": 0,
        "meta_classification_type": "U",
        "meta_norad_cat_id": 40072,
        "meta_element_set_no": 999,
        "meta_rev_at_epoch": 61758,
        "meta_bstar": 0.00035967897,
        "meta_mean_motion_dot": 3.185e-05,
        "meta_mean_motion_ddot": 0,
        "tle_line1": "1 40072U 14037D   25342.31382767  .00003185  00000+0  35968-3 0  9991",
        "tle_line2": "2 40072  98.3606 285.7861 0005790 163.4218 196.7187 14.87301914617584"
      },
      "geometry": {
        "type": "Point",
        "coordinates": [
          126.77674282590465,
          67.26262757213453
        ]
      }
    }
  ]
}